#dP2018  6 14  0  0  0.00000000      96 __u+U ITR00 FIT  IAC
## 2005 345600.00000000   900.00000000 58283 0.0000000000000
+   84   C01C02C03C04C06C07C08C09C10C11C12C13C14E01E02E03E04
+        E05E07E08E09E11E12E14E18E19E24E26E30G01G02G03G05G06
+        G07G08G09G10G11G12G13G14G15G16G17G18G19G20G21G22G23
+        G24G25G26G27G28G29G30G31G32J01R01R02R03R04R05R07R08
+        R09R10R11R13R14R15R16R17R18R19R20R21R22R23R24R26  0
++        13 12 12 13  9  9  9  9  8  8  8  9  8  6  6  7  7
++         7  6  7  7  6  6  6  7  6  7  6  6  4  3  3  3  3
++         3  3  3  4  4  4  4  3  4  3  3  4  4  4  4  4  3
++         4  4  3  4  3  3  3  4  3 10  5  6  6  5  6  5  5
++         5  5  5  6  5  5  5  5  5  5  5  5  5  5  6  9  0
%c M  cc GPS ccc cccc cccc cccc cccc ccccc ccccc ccccc ccccc
%c cc cc ccc ccc cccc cccc cccc cccc ccccc ccccc ccccc ccccc
%f  0.0000000  0.000000000  0.00000000000  0.000000000000000
%f  0.0000000  0.000000000  0.00000000000  0.000000000000000
%i    0    0    0    0      0      0      0      0         0
%i    0    0    0    0      0      0      0      0         0
/* INFORMATION & ANALYSIS CENTER (IAC) OF MCC   (RAPID DATA)
/* S/V CLOCKS ARE ALIGNED TO GPS & GLONASS TIME RESPECTIVELY
/* USING THE BROADCAST EPHEMERIS                            
/* PCV:IGS14_2000 OL/AL:FES2004  NONE     YN ORB:CoN CLK:CoN
*  2018 06 14  8  0  0.00000000
PC01 -32318.465945  27055.841989    369.460698   -169.390312
PC02   4413.287678  41926.561567    599.968074    146.985232
PC03 -14891.319809  39456.204777    910.689318     92.300658
PC04 -39603.865921  14473.866039    495.769738    -49.112154
PC06 -23320.579202  24083.232643 -25483.681937     53.770280
PC07 -16691.136377  37368.859103  -8942.123691    109.190664
PC08  -6781.230316  23674.208975  34338.017984    389.804522
PC09  -7328.088189  25209.066124 -32862.631172    -39.232112
PC10  -5024.159403  41134.498772   6648.072180   -308.362835
PC11  24433.276144   -794.619972 -13471.787876   -549.080163
PC12  24849.038286  11897.797676   4776.044422    477.305611
PC13   4980.066367  31718.271720  27462.581663   -375.430878
PC14  23413.444914 -10394.217237 -10942.769599    337.297170
PE01  -3352.650649 -26909.508176 -11883.395274   -367.957006
PE02   3368.401222  26889.757442  11901.082526     16.303108
PE03   5567.308358  16241.850111 -24100.187361    -43.273359
PE04 -23584.515701  -4464.314618  17336.168176    -54.690156
PE05 -15809.135547  18561.816982 -16773.893142    246.136300
PE07  27850.747261 -10030.897163   -313.083155     15.590811
PE08  23591.235552   4125.554693 -17388.795857   6564.492100
PE09 -27763.086428  10239.929552    397.145472   6763.616309
PE11 -20559.876103   1652.504248  21234.229986   1156.038653
PE12 -24786.342859 -15126.744410   5812.489551   4379.065629
PE14 -11780.755921 -20195.742193 -22520.805931   6567.156480
PE18  13503.157092  13568.844995  13932.452213   6134.016877
PE19  -3512.636461 -16805.994695  24123.638994     23.230903
PE24 -16415.728010  11785.803983 -21645.050081   6653.920457
PE26   4756.178622 -16932.228861 -23808.734388   5823.986869
PE30  13990.333370  10683.809167  23784.983427   5759.588796
PG01 -17172.899281  -4448.807814  19712.527751    -56.185702
PG02  14684.289268  22066.346382  -2570.274393     86.375207
PG03 -18935.121442   6554.224296  17383.353536     88.821491
PG05   8983.712878  13851.419259 -20868.461287     -6.190323
PG06   4597.344256  24220.383489   9878.292153    396.141218
PG07 -10408.480204  12207.590186 -20867.021384    175.556170
PG08 -25338.104171  -5459.779072  -6109.620467   -104.730236
PG09 -20876.621837   8847.516373 -13869.743745    514.588705
PG10   9564.227690 -23636.263909   7181.155602    188.110642
PG11 -22288.958010  -5379.537685  12711.867172   -733.841623
PG12  17620.014756  -1852.483666  19530.916819    327.481815
PG13  19698.470293  12539.308729 -12764.481864    -93.495666
PG14  -6541.557435 -15606.864646  20812.181686    -97.380644
PG15  26249.899727   2876.203252  -4602.089147   -352.655448
PG16  -6628.722186 -14416.161837 -21376.764219     21.469879
PG17  -4263.375077  14448.571692  22252.419053    -88.416808
PG18 -18408.323207 -12840.897114  13879.153253     21.445021
PG19   4678.483033  15045.856566  21055.833849   -428.558821
PG20  14979.702568 -21419.102145  -4676.814732    510.454164
PG21   6665.493416 -16324.692596 -19075.321566   -381.619837
PG22 -16745.836132  -2278.109471  20733.300316   -425.363059
PG23 -26619.863127    682.948140  -2687.147288   -215.898229
PG24  18624.410764   7631.434248  17352.730658    -51.141977
PG25  18716.060486 -15516.930042  10228.173342   -600.666470
PG26    929.863313 -21628.645994 -15309.363411   -116.219858
PG27 -17278.735630 -12082.950728 -16392.204894    365.965480
PG28 -13084.867108  22567.033864   5741.570384    723.528914
PG29  22837.248942  -5489.517726 -12413.039935    432.722185
PG30  -3601.205497  20781.573806 -16033.925336     62.689600
PG31  -5098.688785 -24553.379142   8114.869581    114.713383
PG32   4282.845809 -14976.316767  21545.500669   -494.271815
PJ01 -33493.833308  25538.119671   7070.717660   -220.087773
PR01  -3619.519908  14076.993529 -20947.763242     27.633706
PR02  14825.500964   2590.542471 -20535.717788    314.735369
PR03  22590.000167  -9342.197598  -7168.209571    134.928815
PR04  16811.906417 -15896.724755  10745.657237    264.734943
PR05   1542.535783 -13276.154592  21727.503840    -24.170708
PR07 -22672.010937   9533.353230   6870.377869    -40.009273
PR08 -17332.697468  15762.019447 -10034.031545     22.749448
PR09  -9368.837928 -13579.226362 -19470.222104     23.610995
PR10 -10462.061972   5056.127081 -22720.287013     26.056661
PR11  -5863.975181  21536.406827 -12290.585655    -31.261784
PR13   9386.013899  13327.569054  19595.130746    -11.373439
PR14  10691.460599  -5019.593970  22619.894006     28.170209
PR15   7251.504753 -18720.091295  15681.444739    -11.684459
PR16  -2466.699838 -24992.162608  -4166.915169     94.860934
PR17  20570.975787   4086.301494 -14535.719032    140.061826
PR18   8212.840768  -7371.276365 -22982.008387    199.220227
PR19  -8572.677539 -15021.870059 -18753.864879    -54.691844
PR20 -21228.490045 -14003.871358  -2318.829320   -341.558283
PR21 -20369.186626  -3855.073698  14846.902215     11.930313
PR22  -6440.124643   8428.538250  23201.652496    -51.041434
PR23  12253.655708  15508.620847  16108.937268    159.641664
PR24  21748.425224  13243.517738   1298.624842   -167.577938
PR26 -21177.137542 -13844.137575  -3157.735339     26.506197
EOF
